NOPD_Item,TypeText,InitialTypeText,Zip,PoliceDistrict,Latitude,Longitude
G0402419,FIREWORKS,DISTURBANCE (OTHER),70131,4,29.89867804,-89.99807228
G0550019,FIREWORKS,FIREWORKS,70131,4,29.89904596,-89.99876008
L3774019,FIREWORKS,DISCHARGING FIREARM,70131,4,29.90177006,-90.00523615
G3897819,FIREWORKS,DISCHARGING FIREARM,70131,4,29.90388551,-89.99326288
A0135619,FIREWORKS,DISTURBANCE (OTHER),70131,4,29.90419469,-89.99141229
G3896019,FIREWORKS,DISCHARGING FIREARM,70131,4,29.90419469,-89.99141229
L4026619,FIREWORKS,DISCHARGING FIREARM,70131,4,29.90626776,-89.99301051
G0569919,FIREWORKS,FIREWORKS,70131,4,29.9064715,-89.98849118
L3244419,FIREWORKS,DISTURBANCE (OTHER),70131,4,29.90866812,-89.9860107
G1453319,FIREWORKS,DISTURBANCE (OTHER),70131,4,29.90969882,-89.98920503
G0418019,FIREWORKS,DISCHARGING FIREARM,70131,4,29.91327239,-89.98644596
G0536919,FIREWORKS,FIREWORKS,70131,4,29.91330922,-89.97971708
A0069919,FIREWORKS,FIREWORKS,70131,4,29.91534406,-90.00508293
A0117019,FIREWORKS,DISCHARGING FIREARM,70131,4,29.91547237,-89.98614605
G0532119,FIREWORKS,DISTURBANCE (OTHER),70131,4,29.91562988,-90.00423417
A0071719,FIREWORKS,AGGRAVATED ASSAULT,70131,4,29.91600749,-89.99132284
G0531919,FIREWORKS,FIREWORKS,70131,4,29.91696613,-89.99855619
L3225519,FIREWORKS,DISCHARGING FIREARM,70131,4,29.9171492,-89.99855374
G2942119,FIREWORKS,FIREWORKS,70131,4,29.9172068,-89.99946334
G0424619,FIREWORKS,FIREWORKS,70131,4,29.91753641,-90.00843186
L3233119,FIREWORKS,AGGRAVATED ASSAULT,70115,2,29.91809519,-90.1083235
A0002719,FIREWORKS,AGGRAVATED ASSAULT,70131,4,29.91811752,-90.01152629
L1307619,FIREWORKS,DISCHARGING FIREARM,70114,4,29.91836353,-90.02258447
L3907819,FIREWORKS,DISCHARGING FIREARM,70114,4,29.91840737,-90.0222603
A0011719,FIREWORKS,FIREWORKS,70115,6,29.91892231,-90.08844622
E0456319,FIREWORKS,FIREWORKS,70115,6,29.91921293,-90.08263909
G0533319,FIREWORKS,FIREWORKS,70115,2,29.91942048,-90.10601368
G0529219,FIREWORKS,FIREWORKS,70131,4,29.91956237,-90.00451948
G0535319,FIREWORKS,FIREWORKS,70131,4,29.91956237,-90.00451948
G0540119,FIREWORKS,FIREWORKS,70131,4,29.91958217,-89.97773113
A0134719,FIREWORKS,DISCHARGING FIREARM,70114,4,29.9200472,-90.02231971
I1224619,FIREWORKS,FIREWORKS,70114,4,29.9203857,-90.02225104
L1307319,FIREWORKS,DISCHARGING FIREARM,70114,4,29.92061806,-90.02245838
L4042319,FIREWORKS,FIREWORKS,70131,4,29.92069222,-90.00236544
G2823519,FIREWORKS,DISCHARGING FIREARM,70115,2,29.92080306,-90.10160549
G0538719,FIREWORKS,FIREWORKS,70118,2,29.92111309,-90.1237936
G0557519,FIREWORKS,DISCHARGING FIREARM,70115,6,29.92124071,-90.0807251
G0560219,FIREWORKS,FIREWORKS,70115,2,29.92156152,-90.10298728
A0122019,FIREWORKS,FIREWORKS,70130,6,29.92259274,-90.07603419
G0844619,FIREWORKS,DISCHARGING FIREARM,70131,4,29.92259426,-90.00182462
L4029419,FIREWORKS,FIREWORKS,70131,4,29.92333345,-89.99252103
G0511519,FIREWORKS,DISTURBANCE (OTHER),70131,4,29.92352763,-90.0097566
G2824419,FIREWORKS,DISCHARGING FIREARM,70115,2,29.92461004,-90.10231649
L2890919,FIREWORKS,DISTURBANCE (OTHER),70115,2,29.92509455,-90.11053579
G0548819,FIREWORKS,FIREWORKS,70131,4,29.92715078,-89.999118
G2101419,FIREWORKS,FIREWORKS,70131,4,29.9275197,-90.01383575
G0544319,FIREWORKS,FIREWORKS,70114,4,29.92788576,-90.03148314
G0545819,FIREWORKS,FIREWORKS,70131,4,29.92811799,-90.00341635
G0534519,FIREWORKS,AGGRAVATED ASSAULT,70130,6,29.92816417,-90.07703352
G0420819,FIREWORKS,FIREWORKS,70130,6,29.92869372,-90.07261878
G0847419,FIREWORKS,FIREWORKS,70114,4,29.92880481,-90.01985895
A0133919,FIREWORKS,FIREWORKS,70131,4,29.92917644,-90.00351613
L2889819,FIREWORKS,AGGRAVATED ASSAULT,70115,2,29.92957896,-90.11036855
G0552619,FIREWORKS,DISCHARGING FIREARM,70130,6,29.92961192,-90.07313282
L4031319,FIREWORKS,FIREWORKS,70115,6,29.9298637,-90.09907185
G2085219,FIREWORKS,DISCHARGING FIREARM,70115,6,29.93004856,-90.0957169
G0422419,FIREWORKS,FIREWORKS,70130,6,29.93008878,-90.07231843
H3833819,FIREWORKS,DISCHARGING FIREARM,70130,6,29.93053829,-90.07302167
G1836419,FIREWORKS,DISCHARGING FIREARM,70115,6,29.93104073,-90.09286534
G1967919,FIREWORKS,DISCHARGING FIREARM,70130,6,29.93146171,-90.07246403
L4010119,FIREWORKS,FIREWORKS,70114,4,29.93153508,-90.01244249
K3049219,FIREWORKS,DISCHARGING FIREARM,70114,4,29.93155724,-90.02159127
G0549719,FIREWORKS,FIREWORKS,70115,6,29.93178044,-90.09084683
A0134819,FIREWORKS,FIREWORKS,70115,6,29.9319741,-90.0970328
L4022519,FIREWORKS,DISTURBANCE (OTHER),70114,4,29.93202548,-90.03483495
L3901019,FIREWORKS,FIREWORKS,70130,6,29.93212087,-90.07428304
H3833619,FIREWORKS,DISCHARGING FIREARM,70130,6,29.93219005,-90.07216928
G0585219,FIREWORKS,FIREWORKS,70115,6,29.93253392,-90.08725088
L2243519,FIREWORKS,DISCHARGING FIREARM,70114,4,29.9326365,-90.02659475
G0534019,FIREWORKS,FIREWORKS,70113,6,29.93358735,-90.0856046
A0364819,FIREWORKS,DISCHARGING FIREARM,70115,6,29.93389064,-90.08996126
G0547319,FIREWORKS,FIREWORKS,70114,4,29.93398815,-90.02059903
A0129319,FIREWORKS,FIREWORKS,70115,2,29.93420729,-90.10411879
L4048719,FIREWORKS,DISTURBANCE (OTHER),70114,4,29.9342734,-90.03276485
L4024819,FIREWORKS,FIREWORKS,70114,4,29.93438829,-90.03211025
F3734419,FIREWORKS,DISTURBANCE (OTHER),70130,6,29.93443663,-90.07244446
K2204719,FIREWORKS,DISCHARGING FIREARM,70118,2,29.9345263,-90.12357112
L2648519,FIREWORKS,DISCHARGING FIREARM,70131,4,29.93477829,-90.0039713
A0585719,FIREWORKS,FIREWORKS,70115,6,29.93495796,-90.09704453
L4037619,FIREWORKS,AGGRAVATED ASSAULT,70115,6,29.93495796,-90.09704453
L4046519,FIREWORKS,DISTURBANCE (OTHER),70115,2,29.9350356,-90.11030273
G0536619,FIREWORKS,DISCHARGING FIREARM,70115,6,29.935273,-90.09301004
G0545919,FIREWORKS,FIREWORKS,70130,6,29.9352808,-90.07403122
A0008119,FIREWORKS,DISCHARGING FIREARM,70115,6,29.93587919,-90.097169
L3243119,FIREWORKS,FIREWORKS,70114,4,29.93638552,-90.02382785
A0120719,FIREWORKS,FIREWORKS,70130,6,29.93664503,-90.06922342
L4041419,FIREWORKS,FIREWORKS,70130,6,29.93672333,-90.06977026
A0874619,FIREWORKS,DISTURBANCE (OTHER),70115,2,29.9369145,-90.1066515
K2206019,FIREWORKS,AGGRAVATED ASSAULT,70115,2,29.9369145,-90.1066515
L4053319,FIREWORKS,DISTURBANCE (OTHER),70115,2,29.9369145,-90.1066515
L4041719,FIREWORKS,FIREWORKS,70115,2,29.9369145,-90.1066515
A0122619,FIREWORKS,FIREWORKS,70130,6,29.93703513,-90.07046417
G0553319,FIREWORKS,FIREWORKS,70113,6,29.9370423,-90.08844045
L4035619,FIREWORKS,DISTURBANCE (OTHER),70115,2,29.93721187,-90.10806614
G0546519,FIREWORKS,FIREWORKS,70115,2,29.93746349,-90.11187885
G0531119,FIREWORKS,FIREWORKS,70115,2,29.93747835,-90.1068542
L4016319,FIREWORKS,DISTURBANCE (OTHER),70115,2,29.93747835,-90.1068542
A0519119,FIREWORKS,DISCHARGING FIREARM,70115,6,29.9375179,-90.09087429
K2230319,FIREWORKS,FIREWORKS,70114,4,29.93774943,-90.01720576
L4053019,FIREWORKS,DISCHARGING FIREARM,70130,6,29.93785004,-90.06949455
G0867119,FIREWORKS,FIREWORKS,70114,4,29.93805054,-90.02736455
G0528119,FIREWORKS,FIREWORKS,70114,4,29.93805548,-90.02633302
A2614819,FIREWORKS,DISCHARGING FIREARM,70113,6,29.93807115,-90.08791481
L4016919,FIREWORKS,DISTURBANCE (OTHER),70130,6,29.9385538,-90.07273327
L3315319,FIREWORKS,DISCHARGING FIREARM,70118,2,29.93865289,-90.13021139
L3234319,FIREWORKS,DISCHARGING FIREARM,70118,2,29.93885932,-90.11785952
G0410319,FIREWORKS,DISCHARGING FIREARM,70113,6,29.93917673,-90.08496144
D1832319,FIREWORKS,DISCHARGING FIREARM,70114,4,29.93946187,-90.03027856
G0993019,FIREWORKS,FIREWORKS,70125,2,29.94070448,-90.09996605
K0381219,FIREWORKS,DISCHARGING FIREARM,70125,2,29.94115493,-90.10594759
A0130619,FIREWORKS,FIREWORKS,70113,6,29.94149193,-90.09160259
G0526319,FIREWORKS,DISTURBANCE (OTHER),70113,6,29.94151236,-90.08347499
L4036619,FIREWORKS,FIREWORKS,70114,4,29.94169856,-90.0422248
K0283719,FIREWORKS,AGGRAVATED ASSAULT,70118,2,29.94170116,-90.13207511
G0533619,FIREWORKS,FIREWORKS,70113,6,29.94247438,-90.08130286
G0536319,FIREWORKS,FIREWORKS,70125,2,29.9428815,-90.10687514
L4045619,FIREWORKS,FIREWORKS,70113,6,29.94298802,-90.08511956
L3244219,FIREWORKS,AGGRAVATED ASSAULT,70113,6,29.94342996,-90.0886264
K0380419,FIREWORKS,DISTURBANCE (OTHER),70125,2,29.94348672,-90.1068521
A0128819,FIREWORKS,FIREWORKS,70114,4,29.9439743,-90.03891444
A0003819,FIREWORKS,DISCHARGING FIREARM,70118,2,29.94464948,-90.12646424
L4040619,FIREWORKS,DISTURBANCE (OTHER),70125,6,29.94466851,-90.09284151
L4029319,FIREWORKS,DISTURBANCE (OTHER),70125,6,29.9448399,-90.09279624
A0006919,FIREWORKS,FIREWORKS,70125,2,29.94498706,-90.10538336
G0542919,FIREWORKS,FIREWORKS,70130,8,29.9450776,-90.06822568
G0672319,FIREWORKS,EXPLOSION,70118,2,29.94531581,-90.12743304
K0379319,FIREWORKS,AGGRAVATED ASSAULT,70125,2,29.94561164,-90.10799262
E1531919,FIREWORKS,DISCHARGING FIREARM,70125,6,29.94651029,-90.09575962
A0248119,FIREWORKS,FIREWORKS,70125,2,29.94745998,-90.10433323
L3241719,FIREWORKS,FIGHT,70125,2,29.94756717,-90.10294375
G0537519,FIREWORKS,FIREWORKS,70125,6,29.94767934,-90.09736179
A0002419,FIREWORKS,FIREWORKS,70125,2,29.94800088,-90.1008904
K2522919,FIREWORKS,DISCHARGING FIREARM,70118,2,29.94814223,-90.12424629
L4046319,FIREWORKS,FIREWORKS,70114,4,29.94862367,-90.04517751
L4041019,FIREWORKS,FIREWORKS,70130,8,29.94897778,-90.06286433
G2286419,FIREWORKS,DISCHARGING FIREARM,70130,8,29.94945132,-90.06746495
G0538819,FIREWORKS,FIREWORKS,70118,2,29.95055989,-90.11998494
G0531519,FIREWORKS,FIREWORKS,70118,2,29.95125752,-90.12646027
A1704819,FIREWORKS,AGGRAVATED ASSAULT,70112,8,29.95176323,-90.07460924
A1195219,FIREWORKS,FIREWORKS,70114,4,29.95190221,-90.04672575
K0523819,FIREWORKS,DISCHARGING FIREARM,70118,2,29.95206843,-90.13543057
F4139519,FIREWORKS,DISCHARGING FIREARM,70125,2,29.95216937,-90.11201403
C0000619,FIREWORKS,DISCHARGING FIREARM,70118,2,29.95232947,-90.12387345
I0149919,FIREWORKS,COMPLAINT OTHER,70130,8,29.95387431,-90.06961942
A0023819,FIREWORKS,FIREWORKS,70112,8,29.95412834,-90.07481351
I0522419,FIREWORKS,DISCHARGING FIREARM,70118,2,29.95428753,-90.13021544
F2590819,FIREWORKS,DISCHARGING FIREARM,70118,2,29.95434859,-90.12864498
G0859619,FIREWORKS,FIREWORKS,70114,4,29.95506985,-90.05007051
L3905619,FIREWORKS,FIREWORKS,70125,6,29.95568379,-90.10165329
A0004719,FIREWORKS,DISCHARGING FIREARM,70125,6,29.95580204,-90.10171227
G0228419,FIREWORKS,DISCHARGING FIREARM,70125,2,29.95611573,-90.11578688
A0019219,FIREWORKS,FIREWORKS,70112,1,29.95660889,-90.07359467
L0862219,FIREWORKS,DISCHARGING FIREARM,70117,5,29.957067,-90.0171436
G0549619,FIREWORKS,FIREWORKS,70125,2,29.95723626,-90.11128717
L4042219,FIREWORKS,FIREWORKS,70117,5,29.95739933,-90.01407177
L3213119,FIREWORKS,DISCHARGING FIREARM,70118,2,29.95746513,-90.12968621
E3905019,FIREWORKS,DISCHARGING FIREARM,70125,2,29.9578406,-90.10683401
G0476319,FIREWORKS,EXPLOSION,70118,2,29.95823425,-90.1214688
G0538119,FIREWORKS,DISCHARGING FIREARM,70112,1,29.95826471,-90.07219471
A0131919,FIREWORKS,DISCHARGING FIREARM,70112,1,29.95826471,-90.07219471
A0126719,FIREWORKS,DISCHARGING FIREARM,70112,1,29.95826471,-90.07219471
L4033119,FIREWORKS,DISCHARGING FIREARM,70112,1,29.95826471,-90.07219471
K4055619,FIREWORKS,DISCHARGING FIREARM,70117,5,29.95834934,-90.02279331
G0409519,FIREWORKS,AGGRAVATED ASSAULT,70117,5,29.95874006,-90.01768353
G1833719,FIREWORKS,DISCHARGING FIREARM,70119,1,29.95885429,-90.09092119
A2661419,FIREWORKS,DISCHARGING FIREARM,70125,2,29.96012198,-90.10536667
G0552019,FIREWORKS,FIREWORKS,70118,2,29.96020001,-90.12389783
G0689419,FIREWORKS,FIREWORKS,70117,5,29.96026731,-90.02213812
G1738919,FIREWORKS,COMPLAINT OTHER,70116,8,29.96042737,-90.06272621
G0554519,FIREWORKS,DISCHARGING FIREARM,70117,5,29.96062332,-90.01075369
G1738419,FIREWORKS,FIREWORKS,70116,8,29.96090331,-90.05892279
L4049519,FIREWORKS,INCIDENT REQUESTED BY ANOTHER AGENCY,70117,5,29.96113593,-90.01583862
L4013619,FIREWORKS,DISTURBANCE (OTHER),70112,1,29.96163576,-90.07721329
G0545219,FIREWORKS,FIREWORKS,70117,5,29.96167877,-90.03698603
G0535219,FIREWORKS,AGGRAVATED ASSAULT,70117,5,29.96171113,-90.03259292
G1738619,FIREWORKS,DISCHARGING FIREARM,70116,8,29.96236683,-90.05882447
L4024619,FIREWORKS,DISTURBANCE (OTHER),70119,1,29.96246347,-90.08872937
L4035119,FIREWORKS,DISTURBANCE (OTHER),70119,1,29.96246347,-90.08872937
G0535719,FIREWORKS,FIREWORKS,70117,5,29.96252932,-90.03207327
J3286319,FIREWORKS,DISCHARGING FIREARM,70117,5,29.96266173,-90.053867
G1598919,FIREWORKS,DISCHARGING FIREARM,70116,8,29.96290649,-90.0626184
G0531619,FIREWORKS,FIREWORKS,70118,2,29.96302014,-90.11787084
A3316019,FIREWORKS,DISCHARGING FIREARM,70116,8,29.96308169,-90.06455203
A0224919,FIREWORKS,EXPLOSION,70117,5,29.96339914,-90.00711455
A0134919,FIREWORKS,FIREWORKS,70119,1,29.96341439,-90.09431727
A4140019,FIREWORKS,DISCHARGING FIREARM,70117,5,29.96389269,-90.04724439
I1565919,FIREWORKS,FIREWORKS,70116,1,29.96413298,-90.07304389
H1543019,FIREWORKS,DISTURBANCE (OTHER),70117,5,29.96494911,-90.03767364
G0557319,FIREWORKS,FIREWORKS,70117,5,29.96496501,-90.04238482
G0559019,FIREWORKS,DISTURBANCE (OTHER),70117,5,29.96496501,-90.04238482
G0587719,FIREWORKS,FIREWORKS,70125,6,29.96500286,-90.10758167
K0557219,FIREWORKS,DISTURBANCE (OTHER),70119,1,29.96506464,-90.09038482
F2772519,FIREWORKS,DISCHARGING FIREARM,70116,1,29.96552556,-90.06806934
L3313319,FIREWORKS,DISCHARGING FIREARM,70117,5,29.96556049,-90.03439555
L4045519,FIREWORKS,FIREWORKS,70117,5,29.96559204,-90.03541993
G0990919,FIREWORKS,DISCHARGING FIREARM,70117,5,29.96577389,-90.03536458
G0539219,FIREWORKS,FIREWORKS,70119,1,29.96583175,-90.09962365
G0691619,FIREWORKS,FIREWORKS,70117,5,29.96603424,-90.04674428
B0241219,FIREWORKS,DISCHARGING FIREARM,70119,1,29.96612813,-90.09061558
I1566119,FIREWORKS,DISCHARGING FIREARM,70116,1,29.96632092,-90.07107364
L3241119,FIREWORKS,AGGRAVATED ASSAULT,70119,1,29.96647297,-90.08889624
A0091119,FIREWORKS,DISTURBANCE (OTHER),70119,1,29.9666543,-90.09821012
L2888819,FIREWORKS,SUSPICIOUS PERSON,70116,8,29.96666749,-90.06124849
B2128719,FIREWORKS,DISCHARGING FIREARM,70117,5,29.96685546,-90.03401001
A3454419,FIREWORKS,DISTURBANCE (OTHER),70119,1,29.96719283,-90.0858436
L3294419,FIREWORKS,FIREWORKS,70118,2,29.96767256,-90.12026849
H3642719,FIREWORKS,DISCHARGING FIREARM,70116,1,29.96771817,-90.07334185
A0148119,FIREWORKS,FIREWORKS,70116,1,29.96783699,-90.0632678
L3777719,FIREWORKS,FIREWORKS,70117,5,29.96819788,-90.03748246
L4035019,FIREWORKS,FIREWORKS,70119,1,29.96848191,-90.10143628
L4026419,FIREWORKS,DISCHARGING FIREARM,70118,2,29.96853212,-90.11954297
L0121319,FIREWORKS,DISCHARGING FIREARM,70116,1,29.96879558,-90.06433978
L1119419,FIREWORKS,DISCHARGING FIREARM,70117,5,29.9689007,-90.04915311
D4072219,FIREWORKS,AGGRAVATED BATTERY BY SHOOTING,70119,1,29.96900614,-90.08031931
A0117319,FIREWORKS,FIREWORKS,70117,5,29.96900672,-90.01137739
L3746919,FIREWORKS,DISTURBANCE (OTHER),70116,5,29.96917254,-90.0612473
J0579719,FIREWORKS,DISCHARGING FIREARM,70117,5,29.96945999,-90.03322573
I1082319,FIREWORKS,DISCHARGING FIREARM,70116,1,29.96946257,-90.06601366
F4136119,FIREWORKS,FIREWORKS,70117,5,29.96957878,-90.05440787
C0748219,FIREWORKS,DISCHARGING FIREARM,70116,5,29.96962432,-90.05717947
A0000619,FIREWORKS,DISTURBANCE (OTHER),70117,5,29.96986156,-90.0167802
A0123919,FIREWORKS,DISCHARGING FIREARM,70117,5,29.97016203,-90.03114357
C2070719,FIREWORKS,DISCHARGING FIREARM,70119,1,29.97033945,-90.09421083
L3659119,FIREWORKS,DISCHARGING FIREARM,70117,5,29.97049524,-90.04327556
G0539819,FIREWORKS,FIREWORKS,70119,3,29.97052548,-90.10684733
G0570019,FIREWORKS,FIREWORKS,70118,2,29.97056709,-90.12356761
G0529919,FIREWORKS,DISTURBANCE (OTHER),70117,5,29.97067635,-90.0330011
L3243019,FIREWORKS,DISTURBANCE (OTHER),70119,1,29.97104401,-90.0973272
G1279219,FIREWORKS,FIREWORKS,70118,2,29.97133012,-90.12299576
L3243519,FIREWORKS,DISTURBANCE (OTHER),70119,1,29.97136691,-90.09835531
G0557019,FIREWORKS,FIREWORKS,70116,5,29.97143561,-90.05952132
C0455119,FIREWORKS,DISCHARGING FIREARM,70119,1,29.97152948,-90.08362087
G0534319,FIREWORKS,FIREWORKS,70116,5,29.9717384,-90.05852687
G0548719,FIREWORKS,FIREWORKS,70116,5,29.9717384,-90.05852687
H3642819,FIREWORKS,DISCHARGING FIREARM,70116,1,29.97193561,-90.07193954
F4012319,FIREWORKS,FIREWORKS,70119,1,29.97210015,-90.08130593
L4048819,FIREWORKS,FIREWORKS,70119,1,29.97231819,-90.08404882
G0558419,FIREWORKS,FIREWORKS,70116,5,29.97238189,-90.06073506
G0560419,FIREWORKS,FIREWORKS,70116,5,29.97238189,-90.06073506
A0242619,FIREWORKS,DISTURBANCE (OTHER),70117,5,29.9724594,-90.00167763
G0523819,FIREWORKS,FIREWORKS,70116,1,29.97246238,-90.0728493
L3244819,FIREWORKS,FIREWORKS,70119,1,29.97247341,-90.0781686
I3815919,FIREWORKS,COMPLAINT OTHER,70116,5,29.97272319,-90.05979616
L4033719,FIREWORKS,FIREWORKS,70119,1,29.97287751,-90.07875044
L3669319,FIREWORKS,FIREWORKS,70118,3,29.97295183,-90.11350338
G0549319,FIREWORKS,FIREWORKS,70118,3,29.97297722,-90.11353871
A0394719,FIREWORKS,FIREWORKS,70118,3,29.97309656,-90.11337257
D4073019,FIREWORKS,DISCHARGING FIREARM,70119,1,29.97326069,-90.08299842
A0010319,FIREWORKS,FIREWORKS,70119,1,29.97334026,-90.08681062
A2657219,FIREWORKS,EXPLOSION,70119,1,29.97343765,-90.09678005
A0009219,FIREWORKS,FIREWORKS,70118,3,29.9735405,-90.12339325
G0495819,FIREWORKS,AGGRAVATED ASSAULT,70118,3,29.97407168,-90.11385655
I3076919,FIREWORKS,DISCHARGING FIREARM,70117,5,29.97411204,-90.04881463
L3902319,FIREWORKS,DISTURBANCE (OTHER),70117,5,29.97411204,-90.04881463
G0692919,FIREWORKS,DISCHARGING FIREARM,70119,1,29.97418261,-90.08584309
G0446719,FIREWORKS,FIREWORKS,70119,3,29.97428648,-90.10964184
A0002619,FIREWORKS,FIREWORKS,70119,3,29.97431544,-90.10967603
A1476219,FIREWORKS,DISCHARGING FIREARM,70119,3,29.9743546,-90.10283906
A0012719,FIREWORKS,FIREWORKS,70116,5,29.97443324,-90.05856483
G0537919,FIREWORKS,FIREWORKS,70118,3,29.97447641,-90.12344515
A0006619,FIREWORKS,FIREWORKS,70118,3,29.97447641,-90.12344515
A1696219,FIREWORKS,DISCHARGING FIREARM,70117,5,29.97459947,-90.04938199
G0440219,FIREWORKS,DISCHARGING FIREARM,70116,1,29.97466246,-90.06684604
G0525919,FIREWORKS,FIREWORKS,70117,5,29.97613462,-90.01375639
L4030219,FIREWORKS,FIREWORKS,70117,5,29.97618473,-90.05271714
F3148919,FIREWORKS,DISCHARGING FIREARM,70119,1,29.97631277,-90.084917
A0108119,FIREWORKS,FIREWORKS,70116,5,29.976713,-90.06017552
D4072619,FIREWORKS,DISCHARGING FIREARM,70119,1,29.97681845,-90.0820259
C2071419,FIREWORKS,FIREWORKS,70119,1,29.97730679,-90.07699742
A0002019,FIREWORKS,AGGRAVATED ASSAULT,70119,5,29.97848173,-90.06406425
L3685519,FIREWORKS,FIREWORKS,70119,3,29.97892585,-90.10774683
L3580819,FIREWORKS,DISTURBANCE (OTHER),70119,3,29.97892585,-90.10774683
L3664819,FIREWORKS,DISTURBANCE (OTHER),70119,3,29.97892585,-90.10774683
J3787819,FIREWORKS,EXPLOSION,70119,1,29.97940255,-90.09524991
G0537619,FIREWORKS,FIREWORKS,70117,5,29.98003397,-90.05014195
A0004319,FIREWORKS,FIREWORKS,70119,3,29.98006096,-90.10514126
G0989619,FIREWORKS,DISCHARGING FIREARM,70117,5,29.98024061,-90.05204421
G0513819,FIREWORKS,AGGRAVATED ASSAULT,70117,5,29.98031454,-90.03465517
H1544619,FIREWORKS,FIREWORKS,70119,3,29.98041941,-90.11220419
A0032619,FIREWORKS,DISTURBANCE (OTHER),70119,5,29.98158133,-90.06032746
G0527119,FIREWORKS,DISTURBANCE (OTHER),70119,1,29.98159872,-90.07189394
A0095519,FIREWORKS,DISTURBANCE (OTHER),70117,5,29.98196096,-90.04897685
A0096519,FIREWORKS,FIREWORKS,70117,5,29.98330595,-90.04494637
I1226019,FIREWORKS,AGGRAVATED ASSAULT,70117,5,29.98394182,-90.05634601
G0873019,FIREWORKS,FIREWORKS,70119,3,29.98684673,-90.07234265
G0535019,FIREWORKS,FIREWORKS,70119,3,29.98953024,-90.07607217
G0542619,FIREWORKS,FIREWORKS,70126,5,29.98960213,-90.0390369
L4045119,FIREWORKS,FIREWORKS,70124,3,29.99031928,-90.10761282
L4038719,FIREWORKS,FIREWORKS,70124,3,29.99031928,-90.10761282
L4028819,FIREWORKS,DISCHARGING FIREARM,70122,3,29.99215676,-90.06850373
A0006019,FIREWORKS,FIREWORKS,70122,3,29.99252418,-90.06464759
L4030819,FIREWORKS,DISCHARGING FIREARM,70122,3,29.99300661,-90.07336674
G0524119,FIREWORKS,AGGRAVATED ASSAULT,70122,3,29.99308647,-90.06897346
G0526019,FIREWORKS,FIREWORKS,70122,3,29.99308647,-90.06897346
L3913619,FIREWORKS,DISCHARGING FIREARM,70122,3,29.99320061,-90.07021271
G0530619,FIREWORKS,DISTURBANCE (OTHER),70122,3,29.99328304,-90.06975417
G0846719,FIREWORKS,FIREWORKS,70124,3,29.99381861,-90.11392034
G0430419,FIREWORKS,FIREWORKS,70122,3,29.99424522,-90.06971904
L3657419,FIREWORKS,DISCHARGING FIREARM,70122,3,29.994615,-90.06351913
L4032019,FIREWORKS,FIREWORKS,70122,3,29.9950276,-90.07353627
L3913919,FIREWORKS,FIREWORKS,70122,3,29.9956439,-90.07313668
D3368619,FIREWORKS,DISCHARGING FIREARM,70122,3,29.99582158,-90.05249931
F3004319,FIREWORKS,AGGRAVATED ASSAULT,70122,3,29.99910126,-90.07363426
L4040919,FIREWORKS,FIREWORKS,70122,3,29.99928461,-90.05007979
G0534619,FIREWORKS,FIREWORKS,70124,3,30.00073618,-90.12076652
A0101419,FIREWORKS,FIREWORKS,70122,3,30.00082837,-90.0741708
G0562719,FIREWORKS,FIREWORKS,70124,3,30.00108707,-90.10749186
L1904219,FIREWORKS,FIREWORKS,70124,3,30.00132016,-90.11180848
E4534319,FIREWORKS,DISCHARGING FIREARM,70122,3,30.00303858,-90.07267584
L4023519,FIREWORKS,FIREWORKS,70124,3,30.00509779,-90.11041579
L4020019,FIREWORKS,FIREWORKS,70124,3,30.00602617,-90.11019518
L4046219,FIREWORKS,DISTURBANCE (OTHER),70124,3,30.00602617,-90.11019518
L4028919,FIREWORKS,FIREWORKS,70122,3,30.00747423,-90.07049818
E0442719,FIREWORKS,AGGRAVATED ASSAULT,70124,3,30.00756335,-90.12135968
L4033019,FIREWORKS,FIREWORKS,70124,3,30.00841469,-90.10351462
L4051919,FIREWORKS,FIREWORKS,70122,3,30.00849431,-90.05763361
G0532619,FIREWORKS,FIREWORKS,70122,3,30.00895993,-90.04795469
G0527619,FIREWORKS,FIREWORKS,70126,3,30.01005795,-90.03981574
G0529019,FIREWORKS,FIREWORKS,70126,3,30.01031264,-90.04030301
G0415719,FIREWORKS,FIREWORKS,70122,3,30.01041315,-90.04817347
A0112219,FIREWORKS,FIREWORKS,70122,3,30.01052437,-90.05254976
L4046819,FIREWORKS,FIREWORKS,70124,3,30.01177125,-90.10192295
G0536119,FIREWORKS,FIREWORKS,70124,3,30.01205842,-90.12037278
A3444319,FIREWORKS,DISCHARGING FIREARM,70124,3,30.01237023,-90.11647567
A1482819,FIREWORKS,FIREWORKS,70126,7,30.01243481,-89.99700888
L4039519,FIREWORKS,FIREWORKS,70124,3,30.01375424,-90.10368556
G0540319,FIREWORKS,FIREWORKS,70127,7,30.01410021,-89.98713272
G0534819,FIREWORKS,FIREWORKS,70122,3,30.01447318,-90.06941603
L4040419,FIREWORKS,DISTURBANCE (OTHER),70122,3,30.01576064,-90.07846231
L4040019,FIREWORKS,DISCHARGING FIREARM,70126,3,30.01594055,-90.03601904
L4055019,FIREWORKS,FIREWORKS,70126,7,30.01604585,-90.01581514
L3659919,FIREWORKS,AGGRAVATED ASSAULT,70126,7,30.01612653,-90.00520698
B0525219,FIREWORKS,AGGRAVATED ASSAULT,70124,3,30.01627132,-90.11251669
L4021119,FIREWORKS,DISTURBANCE (OTHER),70122,3,30.01641009,-90.07748615
F4011219,FIREWORKS,DISTURBANCE (OTHER),70122,3,30.01672409,-90.07228157
A0005119,FIREWORKS,FIREWORKS,70127,7,30.01773769,-89.98300215
G0560319,FIREWORKS,FIREWORKS,70124,3,30.01785705,-90.11106048
G0420519,FIREWORKS,DISCHARGING FIREARM,70122,3,30.01958158,-90.05038106
L3242519,FIREWORKS,DISCHARGING FIREARM,70126,7,30.02017073,-89.99063432
A0632219,FIREWORKS,FIREWORKS,70127,7,30.02080346,-89.9751782
G0335519,FIREWORKS,DISCHARGING FIREARM,70126,7,30.02132744,-90.01312962
G0830219,FIREWORKS,DISCHARGING FIREARM,70126,3,30.02178617,-90.04571623
G0536419,FIREWORKS,FIREWORKS,70122,3,30.02222428,-90.05652637
G0537119,FIREWORKS,FIREWORKS,70127,7,30.02226577,-89.97754926
G0541919,FIREWORKS,FIREWORKS,70127,7,30.02230147,-89.97710306
G0531419,FIREWORKS,DISCHARGING FIREARM,70122,3,30.02236581,-90.06834352
G0572719,FIREWORKS,FIREWORKS,70126,7,30.02284571,-90.02361083
G0553919,FIREWORKS,FIREWORKS,70127,7,30.0228633,-89.973675
L4054319,FIREWORKS,DISTURBANCE (OTHER),70122,3,30.02288883,-90.07746705
G0548119,FIREWORKS,FIREWORKS,70127,7,30.02310048,-89.97369953
L4046719,FIREWORKS,FIREWORKS,70122,3,30.02389618,-90.08162914
L4051319,FIREWORKS,DISTURBANCE (OTHER),70122,3,30.02389618,-90.08162914
G0535119,FIREWORKS,FIREWORKS,70127,7,30.02389658,-89.98891582
G0434319,FIREWORKS,DISCHARGING FIREARM,70129,7,30.02402862,-89.94764279
L4034019,FIREWORKS,FIREWORKS,70126,7,30.02415363,-90.02200858
G0529319,FIREWORKS,FIREWORKS,70122,3,30.02450903,-90.07448636
A0003019,FIREWORKS,AGGRAVATED ASSAULT,70126,7,30.02500034,-90.00231301
G0847919,FIREWORKS,FIREWORKS,70124,3,30.02646994,-90.11338949
A0115619,FIREWORKS,FIREWORKS,70124,3,30.02646994,-90.11338949
G0870219,FIREWORKS,FIREWORKS,70127,7,30.0266268,-89.96353731
A0019419,FIREWORKS,FIREWORKS,70124,3,30.02684916,-90.08499101
G0436719,FIREWORKS,FIREWORKS,70128,7,30.02695198,-89.94937697
A0124719,FIREWORKS,FIREWORKS,70127,7,30.02720748,-89.95980915
G0550919,FIREWORKS,FIREWORKS,70126,7,30.02735574,-90.01133827
A0121119,FIREWORKS,FIREWORKS,70124,3,30.02740308,-90.09757986
G0689119,FIREWORKS,FIREWORKS,70126,7,30.02750867,-90.0243443
G0689519,FIREWORKS,FIREWORKS,70126,7,30.02750867,-90.0243443
A0025819,FIREWORKS,DISTURBANCE (OTHER),70127,7,30.02778609,-89.98622219
B0520119,FIREWORKS,DISTURBANCE (OTHER),70128,7,30.02783998,-89.95462473
G0544819,FIREWORKS,FIREWORKS,70127,7,30.02828859,-89.9858299
G0419119,FIREWORKS,DISCHARGING FIREARM,70127,7,30.0285541,-89.98535102
A0115719,FIREWORKS,FIREWORKS,70122,3,30.02880126,-90.05792758
I1669219,FIREWORKS,DISCHARGING FIREARM,70122,3,30.02904198,-90.06468705
L4025019,FIREWORKS,FIREWORKS,70126,7,30.030184,-90.0081895
A0006719,FIREWORKS,FIREWORKS,70126,7,30.0311276,-90.00716271
C0071619,FIREWORKS,DISCHARGING FIREARM,70126,7,30.03117162,-90.01030913
A0123619,FIREWORKS,FIREWORKS,70122,3,30.03151699,-90.06732686
G0533419,FIREWORKS,FIREWORKS,70127,7,30.03252085,-89.98894385
G0553519,FIREWORKS,FIREWORKS,70126,7,30.03480132,-90.00399974
A1030819,FIREWORKS,INCIDENT REQUESTED BY ANOTHER AGENCY,70127,7,30.03599373,-89.98642993
G0408319,FIREWORKS,AGGRAVATED ASSAULT,70127,7,30.03694534,-89.9931118
L4044619,FIREWORKS,FIREWORKS,70127,7,30.03740119,-89.96784323
A0021819,FIREWORKS,AGGRAVATED ASSAULT,70127,7,30.03984068,-89.98070573
L3237719,FIREWORKS,DISTURBANCE (OTHER),70129,7,30.03999544,-89.91134293
B0519819,FIREWORKS,DISCHARGING FIREARM,70129,7,30.04113166,-89.92740334
L4054419,FIREWORKS,DISCHARGING FIREARM,70127,7,30.0474306,-89.98695142
L4020219,FIREWORKS,DISTURBANCE (OTHER),70127,7,30.04782523,-89.97911641
A0135819,FIREWORKS,FIREWORKS,70128,7,30.05118753,-89.97255853
A1700819,FIREWORKS,DISCHARGING FIREARM,70128,7,30.0550889,-89.97057907
G1111319,FIREWORKS,COMPLAINT OTHER,70128,7,30.05589026,-89.96995168
G1482719,FIREWORKS,DISCHARGING FIREARM,70128,7,30.05686609,-89.97018196
G0529419,FIREWORKS,DISCHARGING FIREARM,70129,7,30.05823204,-89.93047865
I4098019,FIREWORKS,AGGRAVATED ASSAULT,70128,7,30.06454612,-89.9470083
G0562219,FIREWORKS,FIREWORKS,70128,7,30.06594568,-89.9512835
L4009219,FIREWORKS,FIREWORKS,70128,7,30.06664307,-89.95004242
G0563119,FIREWORKS,FIREWORKS,70128,7,30.06757208,-89.9423802
A0000919,FIREWORKS,FIREWORKS,70128,7,30.07152182,-89.94360643
L4024419,FIREWORKS,DISCHARGING FIREARM,70128,7,30.07171335,-89.94412027